CUBEBUG-2 (LO-74)
1 39440U 13066AA  26183.60329776  .00005482  00000-0  50528-3 0  9998
2 39440  97.8915 132.6479 0056651 338.1191  21.7609 14.93890310679298
FUNCUBE-1 (AO-73)
1 39444U 13066AE  26183.43482958  .00007511  00000-0  46292-3 0  9993
2 39444  97.8285 155.2011 0037288 149.2742 211.0681 15.09675808681965
UWE-3
1 39446U 13066AG  26183.58834462  .00003508  00000-0  30245-3 0  9995
2 39446  97.8709 139.7682 0047193 268.5027  91.0788 14.97137588679882
UNISAT-6
1 40012U 14033C   26183.39512737  .00002882  00000-0  31173-3 0  9993
2 40012  97.7896 335.8406 0045254  20.1232 340.1756 14.88320443648421
DUCHIFAT-1
1 40021U 14033M   26183.10087887  .00143832  00000-0  12875-2 0  9993
2 40021  98.0445 244.3920 0000097 180.5510 179.5749 15.67889029658083
LILACSAT-2
1 40908U 15049K   26183.62046868  .00018438  00000-0  30798-3 0  9994
2 40908  97.4622 221.0521 0007165 181.0848 179.0390 15.51962930598142
CAS-2T & KS-1Q
1 41847U 16066G   26183.61606328  .00001715  00000-0  24658-3 0  9997
2 41847  98.3817 259.1758 0342792  82.8250 281.1776 14.44744619507021
FOX-1B (AO-91)
1 43017U 17073E   26183.15636973  .00007671  00000-0  33553-3 0  9996
2 43017  97.4681  50.0656 0148185 277.0157  81.4241 15.12917223467651
FUNCUBE-3 (EO-79)/QB50P1
1 40025U 14033R   26182.97796174  .00010559  00000-0  51493-3 0  9996
2 40025  98.0959 195.1628 0009348 164.7109 195.4407 15.18486932655279
FOX-1A (AO-85)
1 40967U 15058D   26183.57819337  .00002553  00000-0  23340-3 0  9998
2 40967  64.7737 231.1515 0131455  50.6094 310.6573 14.91033762115865
DIWATA-2B (PO-101)
1 43678U 18084H   26183.64110870  .00002259  00000-0  18413-3 0  9994
2 43678  98.1200  20.5239 0013117 122.2595 237.9900 15.00519036418531
ESHAIL-2
1 43700U 18090A   26183.58772093  .00000155  00000-0  00000-0 0  9994
2 43700   0.0179  32.1056 0002254 104.8137  21.0737  1.00273103 27834
ITASAT-1
1 43786U 18099AE  26183.36904436  .00008093  00000-0  38656-3 0  9991
2 43786  97.4016 234.5787 0010879 302.6059  57.4125 15.19245229415210
FOX-1CLIFF (AO-95)
1 43770U 18099N   26183.41308517  .00012359  00000-0  46808-3 0  9996
2 43770  97.4376 243.6054 0006932 295.2065  64.8455 15.27034964415544
JY1SAT (JO-97)
1 43803U 18099AX  26183.62196427  .00017868  00000-0  54208-3 0  9994
2 43803  97.4118 246.5140 0005651 198.6681 161.4355 15.34152879415996
UWE-4
1 43880U 18111E   26183.54922875  .00033348  00000-0  65831-3 0  9994
2 43880  97.5848 112.6583 0004407 255.3551 104.7210 15.47089130413150
CAS-6 (TO-108)
1 44881U 19093C   26183.59383748  .00000498  00000-0  62196-4 0  9993
2 44881  97.7532 255.4504 0014584  41.0624 319.1687 14.86542749353707
DOSAAF-85 (RS-44)
1 44909U 19096E   26183.40685408  .00000005  00000-0 -33475-4 0  9998
2 44909  82.5226 329.5910 0218530 108.7415 253.7536 12.79748910304294
SALSAT (TUBSAT 22)
1 46495U 20068K   26183.25417133  .00008637  00000-0  29987-3 0  9992
2 46495  97.8847 187.2381 0008038 243.7769 116.2645 15.30013367317667
CAMSAT XW-3 (CAS-9)
1 50466U 21131B   26183.60443716  .00000498  00000-0  16728-3 0  9998
2 50466  98.4993 275.9110 0005203  61.7641 298.4072 14.41371608237330
ROBUSTA 1F (MTCUBE-2)
1 53109U 22080E   26181.72466670 -.00000003  00000-0  00000-0 0  9990
2 53109  70.1437 293.5372 0008959 286.6703  73.2973  6.42583253 92938
UMKA-1 (RS40S)
1 57172U 23091G   26183.62093961  .00006676  00000-0  30344-3 0  9995
2 57172  97.5040 242.2597 0014067  69.9565 290.3183 15.20998984166350
CUBESX-HSE-3 (RS42S)
1 57178U 23091N   26183.59451771  .00014232  00000-0  46770-3 0  9991
2 57178  97.5082 249.3795 0011010  45.7690 314.4453 15.31606578166788
MONITOR-3 (RS58S)
1 57180U 23091Q   26183.52239304  .00011458  00000-0  41919-3 0  9990
2 57180  97.5074 247.0831 0012279  52.5237 307.7117 15.28152800166635
MONITOR-4 (RS57S)
1 57182U 23091S   26183.63155297  .00010955  00000-0  39983-3 0  9991
2 57182  97.5067 247.1652 0012283  52.6181 307.6175 15.28241276166656
MONITOR-2 (RS39S)
1 57184U 23091U   26183.59584890  .00005559  00000-0  26803-3 0  9994
2 57184  97.5060 241.7797 0012440  64.2558 295.9959 15.19054383166293
SVYATOBOR-1 (RS60S)
1 57187U 23091X   26183.59260144  .00009915  00000-0  37771-3 0  9996
2 57187  97.5079 247.4966 0010004  47.1188 313.0889 15.26878126166662
VIZARD-METEO (RS38S)
1 57189U 23091Z   26183.58469750  .00017382  00000-0  48916-3 0  9991
2 57189  97.5084 253.3827 0006929  27.9005 332.2609 15.36519545167052
UTMN-2 (RS27S)
1 57203U 23091AP  26183.60375007  .00013809  00000-0  44280-3 0  9992
2 57203  97.5079 251.0413 0008084  35.5159 324.6619 15.32431484166908
POLYTECH UNIVERSE-3 (RS46S)
1 57191U 23091AB  26183.62097885  .00005818  00000-0  27819-3 0  9995
2 57191  97.5036 241.3090 0016919  78.1447 282.1684 15.19264178166290
